OBJECT_NAME,OBJECT_ID,EPOCH,MEAN_MOTION,ECCENTRICITY,INCLINATION,RA_OF_ASC_NODE,ARG_OF_PERICENTER,MEAN_ANOMALY,EPHEMERIS_TYPE,CLASSIFICATION_TYPE,NORAD_CAT_ID,ELEMENT_SET_NO,REV_AT_EPOCH,BSTAR,MEAN_MOTION_DOT,MEAN_MOTION_DDOT
STARLINK-30071,2023-067W,2026-04-16T06:12:44.570880,15.26739718,0.00012304,43.0065,62.4724,261.8108,98.2604,0,U,56708,999,16140,-3.804793e-06,-3.62e-06,0.0
STARLINK-30085,2023-067X,2026-04-16T05:21:12.685536,15.27576094,0.00010526,43.0006,58.7978,270.0872,89.9859,0,U,56709,999,16118,2.4798951e-05,4.2e-06,0.0
STARLINK-6197,2023-078A,2026-04-15T19:12:58.349376,15.18301677,0.00028107,69.9902,253.2666,147.31,212.8244,0,U,56767,999,15818,0.00069942908,0.00014295,0.0
STARLINK-6198,2023-078B,2026-04-15T17:14:03.608448,14.98331314,0.00031775,70.0002,230.9544,268.7724,91.3072,0,U,56768,999,15872,-1.092232e-06,-1.06e-06,0.0
STARLINK-6342,2023-078D,2026-04-16T04:27:55.365408,14.98327745,0.00027137,69.9989,269.915,270.1371,89.9477,0,U,56770,999,15780,2.2233766e-05,1.72e-06,0.0
STARLINK-6275,2023-078F,2026-04-16T04:21:40.417056,14.98330054,0.0002955,69.9986,269.8983,268.2753,91.8068,0,U,56772,999,15780,2.5246448e-05,2.08e-06,0.0
STARLINK-6296,2023-078G,2026-04-16T06:50:53.843424,14.98328056,0.00032541,70.0005,209.8314,268.9512,91.1275,0,U,56773,999,15929,4.5019631e-05,4.44e-06,0.0
STARLINK-6190,2023-078H,2026-04-16T04:51:43.430400,14.9832984,0.000313,69.9987,269.9681,268.586,91.494,0,U,56774,999,15780,6.367827e-06,-1.7e-07,0.0
STARLINK-6292,2023-078J,2026-04-16T06:44:53.296224,14.98327506,0.00031482,70.0007,209.8173,269.0894,90.9904,0,U,56775,999,15929,7.634261e-06,-2e-08,0.0
STARLINK-6274,2023-078K,2026-04-16T07:21:16.410816,14.98331019,0.00031778,69.9994,229.7879,268.7607,91.3188,0,U,56776,999,15880,-7.895831e-06,-1.87e-06,0.0
STARLINK-5582,2023-078L,2026-04-16T03:09:15.672096,14.98334216,0.00026797,69.9991,250.2498,264.5957,95.4897,0,U,56777,999,15828,-1.8708552e-05,-3.16e-06,0.0
STARLINK-6304,2023-078M,2026-04-16T07:15:15.810048,14.98334018,0.00029399,69.9999,229.7731,271.0522,89.03,0,U,56778,999,15880,-2.6747746e-05,-4.12e-06,0.0
STARLINK-6231,2023-078N,2026-04-16T01:50:47.707584,14.9832818,0.00032116,70.0003,230.1899,270.7842,89.2949,0,U,56779,999,15876,6.7451571e-05,7.12e-06,0.0
STARLINK-5963,2023-078P,2026-04-15T19:02:46.928544,14.98326446,0.00030617,69.9994,250.6975,269.5172,90.5636,0,U,56780,999,15824,-3.8573735e-05,-5.53e-06,0.0
STARLINK-5989,2023-078Q,2026-04-15T20:14:40.087392,14.98331684,0.00021551,69.9995,250.8488,260.5776,99.5139,0,U,56781,999,15824,9.5542194e-05,1.047e-05,0.0
STARLINK-6352,2023-078R,2026-04-16T07:09:15.305184,14.98330639,0.00032798,70.0005,229.7577,273.7939,86.2845,0,U,56782,999,15880,3.3250768e-05,3.04e-06,0.0
STARLINK-6357,2023-078S,2026-04-16T06:57:13.893696,14.98330427,0.00032974,70.0,229.7303,269.6126,90.4655,0,U,56783,999,15880,4.6851246e-05,4.66e-06,0.0
STARLINK-6354,2023-078T,2026-04-16T02:14:50.506368,14.98324443,0.00031908,69.9998,230.2498,269.3474,90.7319,0,U,56784,999,15877,0.00013452521,1.512e-05,0.0
STARLINK-5931,2023-078U,2026-04-15T17:14:25.248192,14.98330782,0.000293,69.9993,251.2156,265.0544,95.0281,0,U,56785,999,15891,-4.4277976e-05,-6.21e-06,0.0
STARLINK-6341,2023-078V,2026-04-16T06:51:13.195296,14.98333416,0.00033473,69.9996,229.7154,265.2761,94.8016,0,U,56786,999,15880,3.0418894e-05,2.7e-06,0.0
STARLINK-6326,2023-078W,2026-04-16T01:26:45.049632,14.98331775,0.00028051,69.9996,230.1332,278.4791,81.605,0,U,56787,999,15877,4.3314301e-05,4.24e-06,0.0
STARLINK-6336,2023-078X,2026-04-16T01:56:48.698880,14.98327197,0.00032942,69.9998,230.2059,268.6878,91.3904,0,U,56788,999,15877,1.2999349e-05,6.2e-07,0.0
STARLINK-6345,2023-078Z,2026-04-15T17:31:45.723648,14.98334183,0.00034634,70.0004,211.1058,268.3792,91.697,0,U,56790,999,15921,2.0274365e-05,1.49e-06,0.0
STARLINK-5977,2023-078AA,2026-04-15T19:32:35.377440,14.98329936,0.00032518,69.9992,250.7504,267.6821,92.3965,0,U,56791,999,15824,3.0001725e-05,2.65e-06,0.0
STARLINK-6046,2023-078AB,2026-04-15T17:20:25.734048,14.98330574,0.00029318,69.9996,251.2307,272.4659,87.6164,0,U,56792,999,15822,-4.53018e-06,-1.47e-06,0.0
STARLINK-6052,2023-078AC,2026-04-15T18:20:29.854752,14.98334142,0.00032643,69.9991,250.9741,268.3929,91.6857,0,U,56793,999,15823,3.9848947e-05,3.83e-06,0.0
STARLINK-6060,2023-078AD,2026-04-15T17:44:06.963072,14.98327449,0.00034359,70.0001,231.0172,266.6125,93.4641,0,U,56794,999,15872,5.552941e-05,5.7e-06,0.0
STARLINK-6061,2023-078AE,2026-04-16T06:00:02.000160,14.98298978,0.00032995,70.0015,229.5783,266.6743,103.4298,0,U,56795,999,577,0.0051811155,0.0006223,0.0
STARLINK-6049,2023-078AF,2026-04-15T20:20:40.179264,14.98332601,0.00030237,69.999,250.8621,254.135,105.9476,0,U,56796,999,15824,0.00019850884,2.276e-05,0.0
STARLINK-6058,2023-078AG,2026-04-15T19:02:34.496448,14.98330048,0.00028183,69.9993,251.0691,268.8313,91.2524,0,U,56797,999,15823,-6.332511e-06,-1.69e-06,0.0
