STARLINK-30071          
1 56708U 23067W   26106.25884920 -.00000362  00000+0 -38048-5 0  9997
2 56708  43.0065  62.4724 0001230 261.8108  98.2604 15.26739718161403
STARLINK-30085          
1 56709U 23067X   26106.22306349  .00000420  00000+0  24799-4 0  9999
2 56709  43.0006  58.7978 0001052 270.0872  89.9859 15.27576094161181
STARLINK-6197           
1 56767U 23078A   26105.80067534  .00014295  00000+0  69943-3 0  9992
2 56767  69.9902 253.2666 0002810 147.3100 212.8244 15.18301677158180
STARLINK-6198           
1 56768U 23078B   26105.71809732 -.00000106  00000+0 -10922-5 0  9990
2 56768  70.0002 230.9544 0003177 268.7724  91.3072 14.98331314158726
STARLINK-6342           
1 56770U 23078D   26106.18605747  .00000172  00000+0  22234-4 0  9994
2 56770  69.9989 269.9150 0002713 270.1371  89.9477 14.98327745157808
STARLINK-6275           
1 56772U 23078F   26106.18171779  .00000208  00000+0  25246-4 0  9995
2 56772  69.9986 269.8983 0002955 268.2753  91.8068 14.98330054157805
STARLINK-6296           
1 56773U 23078G   26106.28534541  .00000444  00000+0  45020-4 0  9991
2 56773  70.0005 209.8314 0003254 268.9512  91.1275 14.98328056159293
STARLINK-6190           
1 56774U 23078H   26106.20258600 -.00000017  00000+0  63678-5 0  9990
2 56774  69.9987 269.9681 0003130 268.5860  91.4940 14.98329840157808
STARLINK-6292           
1 56775U 23078J   26106.28117241 -.00000002  00000+0  76343-5 0  9991
2 56775  70.0007 209.8173 0003148 269.0894  90.9904 14.98327506159292
STARLINK-6274           
1 56776U 23078K   26106.30643994 -.00000187  00000+0 -78958-5 0  9993
2 56776  69.9994 229.7879 0003177 268.7607  91.3188 14.98331019158808
STARLINK-5582           
1 56777U 23078L   26106.13143139 -.00000316  00000+0 -18709-4 0  9992
2 56777  69.9991 250.2498 0002679 264.5957  95.4897 14.98334216158286
STARLINK-6304           
1 56778U 23078M   26106.30226632 -.00000412  00000+0 -26748-4 0  9991
2 56778  69.9999 229.7731 0002939 271.0522  89.0300 14.98334018158802
STARLINK-6231           
1 56779U 23078N   26106.07694106  .00000712  00000+0  67452-4 0  9999
2 56779  70.0003 230.1899 0003211 270.7842  89.2949 14.98328180158767
STARLINK-5963           
1 56780U 23078P   26105.79359871 -.00000553  00000+0 -38574-4 0  9994
2 56780  69.9994 250.6975 0003061 269.5172  90.5636 14.98326446158246
STARLINK-5989           
1 56781U 23078Q   26105.84351953  .00001047  00000+0  95542-4 0  9999
2 56781  69.9995 250.8488 0002155 260.5776  99.5139 14.98331684158240
STARLINK-6352           
1 56782U 23078R   26106.29809381  .00000304  00000+0  33251-4 0  9997
2 56782  70.0005 229.7577 0003279 273.7939  86.2845 14.98330639158803
STARLINK-6357           
1 56783U 23078S   26106.28974414  .00000466  00000+0  46851-4 0  9996
2 56783  70.0000 229.7303 0003297 269.6126  90.4655 14.98330427158809
STARLINK-6354           
1 56784U 23078T   26106.09364012  .00001512  00000+0  13453-3 0  9997
2 56784  69.9998 230.2498 0003190 269.3474  90.7319 14.98324443158777
STARLINK-5931           
1 56785U 23078U   26105.71834778 -.00000621  00000+0 -44278-4 0  9999
2 56785  69.9993 251.2156 0002930 265.0544  95.0281 14.98330782158914
STARLINK-6341           
1 56786U 23078V   26106.28556939  .00000270  00000+0  30419-4 0  9993
2 56786  69.9996 229.7154 0003347 265.2761  94.8016 14.98333416158800
STARLINK-6326           
1 56787U 23078W   26106.06024363  .00000424  00000+0  43314-4 0  9990
2 56787  69.9996 230.1332 0002805 278.4791  81.6050 14.98331775158776
STARLINK-6336           
1 56788U 23078X   26106.08111920  .00000062  00000+0  12999-4 0  9992
2 56788  69.9998 230.2059 0003294 268.6878  91.3904 14.98327197158775
STARLINK-6345           
1 56790U 23078Z   26105.73039032  .00000149  00000+0  20274-4 0  9990
2 56790  70.0004 211.1058 0003463 268.3792  91.6970 14.98334183159215
STARLINK-5977           
1 56791U 23078AA  26105.81429835  .00000265  00000+0  30002-4 0  9993
2 56791  69.9992 250.7504 0003251 267.6821  92.3965 14.98329936158248
STARLINK-6046           
1 56792U 23078AB  26105.72252007 -.00000147  00000+0 -45302-5 0  9990
2 56792  69.9996 251.2307 0002931 272.4659  87.6164 14.98330574158223
STARLINK-6052           
1 56793U 23078AC  26105.76423443  .00000383  00000+0  39849-4 0  9997
2 56793  69.9991 250.9741 0003264 268.3929  91.6857 14.98334142158231
STARLINK-6060           
1 56794U 23078AD  26105.73896948  .00000570  00000+0  55529-4 0  9990
2 56794  70.0001 231.0172 0003435 266.6125  93.4641 14.98327449158721
STARLINK-6061           
1 56795U 23078AE  26106.25002315  .00062230  00000+0  51811-2 0  9995
2 56795  70.0015 229.5783 0003299 266.6743 103.4298 14.98298978  5771
STARLINK-6049           
1 56796U 23078AF  26105.84768726  .00002276  00000+0  19851-3 0  9998
2 56796  69.9990 250.8621 0003023 254.1350 105.9476 14.98332601158248
STARLINK-6058           
1 56797U 23078AG  26105.79345482 -.00000169  00000+0 -63325-5 0  9991
2 56797  69.9993 251.0691 0002818 268.8313  91.2524 14.98330048158237
